[
    {
        "Altitude(m)": 604983.0528564719,
        "Argument of Periapsis(deg)": 0.0,
        "Eccentricity": 0.0,
        "Inclination(deg)": 60.0,
        "Latitude(deg)": -0.09255375290478421,
        "Longitude(deg)": 60.083916482402266,
        "Mean Anomaly(deg)": -180.0,
        "RAAN(deg)": 340.00000000000006,
        "Satellite Name": "Test1 1507",
        "Satellite Number": 1507,
        "Semi-Major Axis(m)": 6980739.136638005,
        "Time(s)": 0
    },
    {
        "Altitude(m)": 605055.3316568951,
        "Argument of Periapsis(deg)": 0.00010418945913296404,
        "Eccentricity": 0.0,
        "Inclination(deg)": 60.0,
        "Latitude(deg)": -0.632963389465737,
        "Longitude(deg)": 60.35204186432728,
        "Mean Anomaly(deg)": -179.37989385453815,
        "RAAN(deg)": 339.99957995086027,
        "Satellite Name": "Test1 1507",
        "Satellite Number": 1507,
        "Semi-Major Axis(m)": 6980739.136638005,
        "Time(s)": 10
    }
]